STARLINK-36889          
1 68006U 26039W   26079.16668981 -.01535492  00000+0 -26228-1 0  9990
2 68006  43.0005 351.3907 0001495 270.0611 211.8610 15.53317549  4565
STARLINK-36592          
1 68007U 26039X   26079.16668981 -.01854779  00000+0 -27390-1 0  9994
2 68007  42.9998 351.1315 0001017 263.6378 321.9545 15.57809794  4566
STARLINK-36911          
1 68008U 26039Y   26079.16668981 -.01851912  00000+0 -28928-1 0  9999
2 68008  42.9997 351.1997 0000631 281.9028 275.7275 15.56321237  4564
STARLINK-36956          
1 68009U 26039Z   26079.16668981 -.01811658  00000+0 -29482-1 0  9999
2 68009  43.0003 351.2544 0001077 268.0548 267.8292 15.55147496  4565
STARLINK-36953          
1 68010U 26039AA  26079.16668981 -.01869318  00000+0 -22954-1 0  9994
2 68010  42.9997 350.8660 0001424 258.5942  73.7129 15.62591247  4567
STARLINK-36991          
1 68011U 26039AB  26079.16668981  .00094718  00000+0  16021-2 0  9995
2 68011  42.9999 351.9079 0002068 254.5917  15.9928 15.50556375  4564
STARLINK-36936          
1 68012U 26039AC  26079.16668981 -.01786415  00000+0 -29267-1 0  9996
2 68012  43.0002 351.2114 0001082 261.0503 291.1157 15.54919800  4566
STARLINK-36967          
1 68013U 26039AD  26079.16668981  .00091948  00000+0  15580-2 0  9998
2 68013  43.0001 351.8344 0001322 283.1678  17.4339 15.50520214  4566
STARLINK-36985          
1 68014U 26039AE  26079.16668981 -.01860475  00000+0 -22397-1 0  9994
2 68014  42.9996 350.8242 0001554 260.6487  88.2775 15.63075117  4560
STARLINK-36335          
1 68015U 26040A   26079.16668981 -.01883624  00000+0 -12591-1 0  9993
2 68015  97.2804  28.1210 0001430 114.2430 265.4347 15.78325632  4062
STARLINK-36923          
1 68016U 26040B   26079.16668981 -.01780818  00000+0 -12121-1 0  9994
2 68016  97.2810  28.1253 0001163 102.8939 284.0982 15.77750424  4115
STARLINK-36568          
1 68017U 26040C   26079.16668981 -.01786209  00000+0 -12191-1 0  9992
2 68017  97.2806  28.1270 0001295 101.9522 289.1652 15.77697365  4118
