CCSDS_OMM_VERS = 2.0
CREATION_DATE  = 
ORIGINATOR     = 

OBJECT_NAME    = STARLINK-36889
OBJECT_ID      = 2026-039W
CENTER_NAME    = EARTH
REF_FRAME      = TEME
TIME_SYSTEM    = UTC
MEAN_ELEMENT_THEORY = SGP/SGP4

EPOCH          = 2026-03-20T04:00:01.999584
MEAN_MOTION    = 15.53317549
ECCENTRICITY   = .00014954
INCLINATION    = 43.0005
RA_OF_ASC_NODE = 351.3907
ARG_OF_PERICENTER = 270.0611
MEAN_ANOMALY   = 211.8610

EPHEMERIS_TYPE = 0
CLASSIFICATION_TYPE = U
NORAD_CAT_ID   = 68006
ELEMENT_SET_NO = 999
REV_AT_EPOCH   = 456
BSTAR          = -.26228209E-1
MEAN_MOTION_DOT = -.1535492E-1
MEAN_MOTION_DDOT = 0

CCSDS_OMM_VERS = 2.0
CREATION_DATE  = 
ORIGINATOR     = 

OBJECT_NAME    = STARLINK-36592
OBJECT_ID      = 2026-039X
CENTER_NAME    = EARTH
REF_FRAME      = TEME
TIME_SYSTEM    = UTC
MEAN_ELEMENT_THEORY = SGP/SGP4

EPOCH          = 2026-03-20T04:00:01.999584
MEAN_MOTION    = 15.57809794
ECCENTRICITY   = .0001017
INCLINATION    = 42.9998
RA_OF_ASC_NODE = 351.1315
ARG_OF_PERICENTER = 263.6378
MEAN_ANOMALY   = 321.9545

EPHEMERIS_TYPE = 0
CLASSIFICATION_TYPE = U
NORAD_CAT_ID   = 68007
ELEMENT_SET_NO = 999
REV_AT_EPOCH   = 456
BSTAR          = -.27389903E-1
MEAN_MOTION_DOT = -.1854779E-1
MEAN_MOTION_DDOT = 0

CCSDS_OMM_VERS = 2.0
CREATION_DATE  = 
ORIGINATOR     = 

OBJECT_NAME    = STARLINK-36911
OBJECT_ID      = 2026-039Y
CENTER_NAME    = EARTH
REF_FRAME      = TEME
TIME_SYSTEM    = UTC
MEAN_ELEMENT_THEORY = SGP/SGP4

EPOCH          = 2026-03-20T04:00:01.999584
MEAN_MOTION    = 15.56321237
ECCENTRICITY   = .00006318
INCLINATION    = 42.9997
RA_OF_ASC_NODE = 351.1997
ARG_OF_PERICENTER = 281.9028
MEAN_ANOMALY   = 275.7275

EPHEMERIS_TYPE = 0
CLASSIFICATION_TYPE = U
NORAD_CAT_ID   = 68008
ELEMENT_SET_NO = 999
REV_AT_EPOCH   = 456
BSTAR          = -.28928449E-1
MEAN_MOTION_DOT = -.1851912E-1
MEAN_MOTION_DDOT = 0

CCSDS_OMM_VERS = 2.0
CREATION_DATE  = 
ORIGINATOR     = 

OBJECT_NAME    = STARLINK-36956
OBJECT_ID      = 2026-039Z
CENTER_NAME    = EARTH
REF_FRAME      = TEME
TIME_SYSTEM    = UTC
MEAN_ELEMENT_THEORY = SGP/SGP4

EPOCH          = 2026-03-20T04:00:01.999584
MEAN_MOTION    = 15.55147496
ECCENTRICITY   = .00010778
INCLINATION    = 43.0003
RA_OF_ASC_NODE = 351.2544
ARG_OF_PERICENTER = 268.0548
MEAN_ANOMALY   = 267.8292

EPHEMERIS_TYPE = 0
CLASSIFICATION_TYPE = U
NORAD_CAT_ID   = 68009
ELEMENT_SET_NO = 999
REV_AT_EPOCH   = 456
BSTAR          = -.2948186E-1
MEAN_MOTION_DOT = -.1811658E-1
MEAN_MOTION_DDOT = 0

CCSDS_OMM_VERS = 2.0
CREATION_DATE  = 
ORIGINATOR     = 

OBJECT_NAME    = STARLINK-36953
OBJECT_ID      = 2026-039AA
CENTER_NAME    = EARTH
REF_FRAME      = TEME
TIME_SYSTEM    = UTC
MEAN_ELEMENT_THEORY = SGP/SGP4

EPOCH          = 2026-03-20T04:00:01.999584
MEAN_MOTION    = 15.62591247
ECCENTRICITY   = .00014243
INCLINATION    = 42.9997
RA_OF_ASC_NODE = 350.8660
ARG_OF_PERICENTER = 258.5942
MEAN_ANOMALY   = 73.7129

EPHEMERIS_TYPE = 0
CLASSIFICATION_TYPE = U
NORAD_CAT_ID   = 68010
ELEMENT_SET_NO = 999
REV_AT_EPOCH   = 456
BSTAR          = -.22953916E-1
MEAN_MOTION_DOT = -.1869318E-1
MEAN_MOTION_DDOT = 0

CCSDS_OMM_VERS = 2.0
CREATION_DATE  = 
ORIGINATOR     = 

OBJECT_NAME    = STARLINK-36991
OBJECT_ID      = 2026-039AB
CENTER_NAME    = EARTH
REF_FRAME      = TEME
TIME_SYSTEM    = UTC
MEAN_ELEMENT_THEORY = SGP/SGP4

EPOCH          = 2026-03-20T04:00:01.999584
MEAN_MOTION    = 15.50556375
ECCENTRICITY   = .00020689
INCLINATION    = 42.9999
RA_OF_ASC_NODE = 351.9079
ARG_OF_PERICENTER = 254.5917
MEAN_ANOMALY   = 15.9928

EPHEMERIS_TYPE = 0
CLASSIFICATION_TYPE = U
NORAD_CAT_ID   = 68011
ELEMENT_SET_NO = 999
REV_AT_EPOCH   = 456
BSTAR          = .16021339E-2
MEAN_MOTION_DOT = .94718E-3
MEAN_MOTION_DDOT = 0

CCSDS_OMM_VERS = 2.0
CREATION_DATE  = 
ORIGINATOR     = 

OBJECT_NAME    = STARLINK-36936
OBJECT_ID      = 2026-039AC
CENTER_NAME    = EARTH
REF_FRAME      = TEME
TIME_SYSTEM    = UTC
MEAN_ELEMENT_THEORY = SGP/SGP4

EPOCH          = 2026-03-20T04:00:01.999584
MEAN_MOTION    = 15.54919800
ECCENTRICITY   = .00010824
INCLINATION    = 43.0002
RA_OF_ASC_NODE = 351.2114
ARG_OF_PERICENTER = 261.0503
MEAN_ANOMALY   = 291.1157

EPHEMERIS_TYPE = 0
CLASSIFICATION_TYPE = U
NORAD_CAT_ID   = 68012
ELEMENT_SET_NO = 999
REV_AT_EPOCH   = 456
BSTAR          = -.29266608E-1
MEAN_MOTION_DOT = -.1786415E-1
MEAN_MOTION_DDOT = 0

CCSDS_OMM_VERS = 2.0
CREATION_DATE  = 
ORIGINATOR     = 

OBJECT_NAME    = STARLINK-36967
OBJECT_ID      = 2026-039AD
CENTER_NAME    = EARTH
REF_FRAME      = TEME
TIME_SYSTEM    = UTC
MEAN_ELEMENT_THEORY = SGP/SGP4

EPOCH          = 2026-03-20T04:00:01.999584
MEAN_MOTION    = 15.50520214
ECCENTRICITY   = .00013227
INCLINATION    = 43.0001
RA_OF_ASC_NODE = 351.8344
ARG_OF_PERICENTER = 283.1678
MEAN_ANOMALY   = 17.4339

EPHEMERIS_TYPE = 0
CLASSIFICATION_TYPE = U
NORAD_CAT_ID   = 68013
ELEMENT_SET_NO = 999
REV_AT_EPOCH   = 456
BSTAR          = .15580407E-2
MEAN_MOTION_DOT = .91948E-3
MEAN_MOTION_DDOT = 0

CCSDS_OMM_VERS = 2.0
CREATION_DATE  = 
ORIGINATOR     = 

OBJECT_NAME    = STARLINK-36985
OBJECT_ID      = 2026-039AE
CENTER_NAME    = EARTH
REF_FRAME      = TEME
TIME_SYSTEM    = UTC
MEAN_ELEMENT_THEORY = SGP/SGP4

EPOCH          = 2026-03-20T04:00:01.999584
MEAN_MOTION    = 15.63075117
ECCENTRICITY   = .00015545
INCLINATION    = 42.9996
RA_OF_ASC_NODE = 350.8242
ARG_OF_PERICENTER = 260.6487
MEAN_ANOMALY   = 88.2775

EPHEMERIS_TYPE = 0
CLASSIFICATION_TYPE = U
NORAD_CAT_ID   = 68014
ELEMENT_SET_NO = 999
REV_AT_EPOCH   = 456
BSTAR          = -.22396948E-1
MEAN_MOTION_DOT = -.1860475E-1
MEAN_MOTION_DDOT = 0

CCSDS_OMM_VERS = 2.0
CREATION_DATE  = 
ORIGINATOR     = 

OBJECT_NAME    = STARLINK-36335
OBJECT_ID      = 2026-040A
CENTER_NAME    = EARTH
REF_FRAME      = TEME
TIME_SYSTEM    = UTC
MEAN_ELEMENT_THEORY = SGP/SGP4

EPOCH          = 2026-03-20T04:00:01.999584
MEAN_MOTION    = 15.78325632
ECCENTRICITY   = .00014306
INCLINATION    = 97.2804
RA_OF_ASC_NODE = 28.1210
ARG_OF_PERICENTER = 114.2430
MEAN_ANOMALY   = 265.4347

EPHEMERIS_TYPE = 0
CLASSIFICATION_TYPE = U
NORAD_CAT_ID   = 68015
ELEMENT_SET_NO = 999
REV_AT_EPOCH   = 406
BSTAR          = -.1259119E-1
MEAN_MOTION_DOT = -.1883624E-1
MEAN_MOTION_DDOT = 0

CCSDS_OMM_VERS = 2.0
CREATION_DATE  = 
ORIGINATOR     = 

OBJECT_NAME    = STARLINK-36923
OBJECT_ID      = 2026-040B
CENTER_NAME    = EARTH
REF_FRAME      = TEME
TIME_SYSTEM    = UTC
MEAN_ELEMENT_THEORY = SGP/SGP4

EPOCH          = 2026-03-20T04:00:01.999584
MEAN_MOTION    = 15.77750424
ECCENTRICITY   = .00011633
INCLINATION    = 97.2810
RA_OF_ASC_NODE = 28.1253
ARG_OF_PERICENTER = 102.8939
MEAN_ANOMALY   = 284.0982

EPHEMERIS_TYPE = 0
CLASSIFICATION_TYPE = U
NORAD_CAT_ID   = 68016
ELEMENT_SET_NO = 999
REV_AT_EPOCH   = 411
BSTAR          = -.1212073E-1
MEAN_MOTION_DOT = -.1780818E-1
MEAN_MOTION_DDOT = 0

CCSDS_OMM_VERS = 2.0
CREATION_DATE  = 
ORIGINATOR     = 

OBJECT_NAME    = STARLINK-36568
OBJECT_ID      = 2026-040C
CENTER_NAME    = EARTH
REF_FRAME      = TEME
TIME_SYSTEM    = UTC
MEAN_ELEMENT_THEORY = SGP/SGP4

EPOCH          = 2026-03-20T04:00:01.999584
MEAN_MOTION    = 15.77697365
ECCENTRICITY   = .00012957
INCLINATION    = 97.2806
RA_OF_ASC_NODE = 28.1270
ARG_OF_PERICENTER = 101.9522
MEAN_ANOMALY   = 289.1652

EPHEMERIS_TYPE = 0
CLASSIFICATION_TYPE = U
NORAD_CAT_ID   = 68017
ELEMENT_SET_NO = 999
REV_AT_EPOCH   = 411
BSTAR          = -.12190635E-1
MEAN_MOTION_DOT = -.1786209E-1
MEAN_MOTION_DDOT = 0

